[{"OBJECT_NAME":"FLOCK 4G-24","OBJECT_ID":"2025-009AE","EPOCH":"2026-03-09T17:24:07.838208","MEAN_MOTION":15.27784978,"ECCENTRICITY":0.0001802,"INCLINATION":97.4061,"RA_OF_ASC_NODE":151.514,"ARG_OF_PERICENTER":280.2808,"MEAN_ANOMALY":79.8228,"EPHEMERIS_TYPE":0,"CLASSIFICATION_TYPE":"U","NORAD_CAT_ID":62637,"ELEMENT_SET_NO":999,"REV_AT_EPOCH":6373,"BSTAR":0.00038996067,"MEAN_MOTION_DOT":0.00010513,"MEAN_MOTION_DDOT":0},{"OBJECT_NAME":"STARLINK-34193","OBJECT_ID":"2025-101T","EPOCH":"2026-03-09T04:12:21.490272","MEAN_MOTION":15.27573864,"ECCENTRICITY":0.00016818,"INCLINATION":43.0022,"RA_OF_ASC_NODE":1.1202,"ARG_OF_PERICENTER":295.0137,"MEAN_ANOMALY":65.054,"EPHEMERIS_TYPE":0,"CLASSIFICATION_TYPE":"U","NORAD_CAT_ID":64011,"ELEMENT_SET_NO":999,"REV_AT_EPOCH":4697,"BSTAR":0.0010599137,"MEAN_MOTION_DOT":0.00029014,"MEAN_MOTION_DDOT":0}]
