FLOCK 4G-24             
1 62637U 25009AE  26068.72509072  .00010513  00000+0  38996-3 0  9991
2 62637  97.4061 151.5140 0001802 280.2808  79.8228 15.27784978 63732
STARLINK-34193          
1 64011U 25101T   26068.17524873  .00029014  00000+0  10599-2 0  9991
2 64011  43.0022   1.1202 0001681 295.0137  65.0540 15.27573864 46978
